{
  "norad_id": 65362,
  "name": "STARLINK-34817",
  "history": [
    {
      "epoch": "2026-03-28T06:10:34.729824Z",
      "apogee_km": 476.01039033959023,
      "perigee_km": 474.34366436813707,
      "latitude_deg": -5.4637900832793276e-06,
      "longitude_deg": 163.91430045722575,
      "height_km": 476.078013278206,
      "semi_major_axis_km": 6853.314027353864,
      "eccentricity": 0.0001216,
      "inclination_deg": 53.1599,
      "raan_deg": 82.2394,
      "arg_perigee_deg": 90.1954,
      "mean_anomaly_deg": 269.9186,
      "mean_motion_rev_day": 15.30212741
    },
    {
      "epoch": "2026-03-29T05:41:22.664832Z",
      "apogee_km": 476.23105398795906,
      "perigee_km": 474.17094058597377,
      "latitude_deg": 5.931137530096306e-05,
      "longitude_deg": 165.69816180273395,
      "height_km": 476.1927018729078,
      "semi_major_axis_km": 6853.337997286966,
      "eccentricity": 0.0001503,
      "inclination_deg": 53.1602,
      "raan_deg": 77.6886,
      "arg_perigee_deg": 95.2321,
      "mean_anomaly_deg": 264.8852,
      "mean_motion_rev_day": 15.30204713
    },
    {
      "epoch": "2026-03-29T22:55:57.906912Z",
      "apogee_km": 476.46966371182407,
      "perigee_km": 473.8763712012187,
      "latitude_deg": -1.7840188243004845e-05,
      "longitude_deg": -96.9949872035259,
      "height_km": 476.2979946785625,
      "semi_major_axis_km": 6853.310017456522,
      "eccentricity": 0.0001892,
      "inclination_deg": 53.1598,
      "raan_deg": 74.3505,
      "arg_perigee_deg": 100.1165,
      "mean_anomaly_deg": 260.0049,
      "mean_motion_rev_day": 15.30214084
    },
    {
      "epoch": "2026-03-30T05:12:10.571328Z",
      "apogee_km": 475.8695466358313,
      "perigee_km": 474.5103948309952,
      "latitude_deg": -2.9408085785426994e-05,
      "longitude_deg": 167.4812287221372,
      "height_km": 476.21651881047313,
      "semi_major_axis_km": 6853.326970733413,
      "eccentricity": 9.916e-05,
      "inclination_deg": 53.1609,
      "raan_deg": 73.137,
      "arg_perigee_deg": 100.8542,
      "mean_anomaly_deg": 259.257,
      "mean_motion_rev_day": 15.30208406
    },
    {
      "epoch": "2026-03-30T08:20:17.078496Z",
      "apogee_km": 476.11971727955006,
      "perigee_km": 474.22491431991693,
      "latitude_deg": 4.009694043591361e-05,
      "longitude_deg": 119.7205117957137,
      "height_km": 475.8442181642893,
      "semi_major_axis_km": 6853.309315799733,
      "eccentricity": 0.00013824,
      "inclination_deg": 53.16,
      "raan_deg": 72.5321,
      "arg_perigee_deg": 76.1944,
      "mean_anomaly_deg": 283.9211,
      "mean_motion_rev_day": 15.30214319
    },
    {
      "epoch": "2026-03-30T16:10:32.940768Z",
      "apogee_km": 475.89991873079725,
      "perigee_km": 474.4493467906068,
      "latitude_deg": -3.827683105516709e-05,
      "longitude_deg": 0.3134764572850484,
      "height_km": 476.18890117373525,
      "semi_major_axis_km": 6853.311632760701,
      "eccentricity": 0.00010583,
      "inclination_deg": 53.1603,
      "raan_deg": 71.0131,
      "arg_perigee_deg": 99.191,
      "mean_anomaly_deg": 260.921,
      "mean_motion_rev_day": 15.30213543
    },
    {
      "epoch": "2026-03-31T15:41:21.230016Z",
      "apogee_km": 476.21709693592675,
      "perigee_km": 474.24469765508456,
      "latitude_deg": -4.433187128148718e-05,
      "longitude_deg": 2.095706455405167,
      "height_km": 476.16183617402413,
      "semi_major_axis_km": 6853.367897295505,
      "eccentricity": 0.0001439,
      "inclination_deg": 53.1614,
      "raan_deg": 66.4622,
      "arg_perigee_deg": 91.9142,
      "mean_anomaly_deg": 268.2023,
      "mean_motion_rev_day": 15.30194699
    },
    {
      "epoch": "2026-04-01T15:12:09.139968Z",
      "apogee_km": 476.1873552362322,
      "perigee_km": 474.1861846954016,
      "latitude_deg": -1.1814662542816757e-06,
      "longitude_deg": 3.8794578102305075,
      "height_km": 476.06560783879286,
      "semi_major_axis_km": 6853.323769965817,
      "eccentricity": 0.000146,
      "inclination_deg": 53.1617,
      "raan_deg": 61.9112,
      "arg_perigee_deg": 88.9027,
      "mean_anomaly_deg": 271.2141,
      "mean_motion_rev_day": 15.30209478
    },
    {
      "epoch": "2026-04-02T06:52:40.927584Z",
      "apogee_km": 476.0805163357145,
      "perigee_km": 474.2310867402921,
      "latitude_deg": -2.7835289697123006e-06,
      "longitude_deg": 125.06923910037747,
      "height_km": 475.9343959656747,
      "semi_major_axis_km": 6853.292801538003,
      "eccentricity": 0.00013493,
      "inclination_deg": 53.1612,
      "raan_deg": 58.8772,
      "arg_perigee_deg": 82.5733,
      "mean_anomaly_deg": 277.5421,
      "mean_motion_rev_day": 15.3021985
    },
    {
      "epoch": "2026-04-03T14:13:45.046272Z",
      "apogee_km": 476.7363739716957,
      "perigee_km": 473.6441527104753,
      "latitude_deg": 4.731020284186335e-06,
      "longitude_deg": 7.447938215904611,
      "height_km": 475.8081614647807,
      "semi_major_axis_km": 6853.327263341085,
      "eccentricity": 0.0002256,
      "inclination_deg": 53.1614,
      "raan_deg": 52.8106,
      "arg_perigee_deg": 79.6049,
      "mean_anomaly_deg": 280.5206,
      "mean_motion_rev_day": 15.30208308
    },
    {
      "epoch": "2026-04-04T13:44:33.136800Z",
      "apogee_km": 476.10649801495856,
      "perigee_km": 474.23417445069936,
      "latitude_deg": 3.384724369068592e-05,
      "longitude_deg": 9.229922814120991,
      "height_km": 475.70066412155563,
      "semi_major_axis_km": 6853.307336232829,
      "eccentricity": 0.0001366,
      "inclination_deg": 53.1604,
      "raan_deg": 48.2586,
      "arg_perigee_deg": 66.865,
      "mean_anomaly_deg": 293.2495,
      "mean_motion_rev_day": 15.30214982
    },
    {
      "epoch": "2026-04-05T03:51:01.857888Z",
      "apogee_km": 476.08021245109194,
      "perigee_km": 474.541613394641,
      "latitude_deg": -1.764625065787486e-05,
      "longitude_deg": 154.3024184842354,
      "height_km": 476.2430954312123,
      "semi_major_axis_km": 6853.447912922867,
      "eccentricity": 0.00011225,
      "inclination_deg": 53.16,
      "raan_deg": 45.5302,
      "arg_perigee_deg": 92.5268,
      "mean_anomaly_deg": 267.5861,
      "mean_motion_rev_day": 15.30167901
    },
    {
      "epoch": "2026-04-05T21:05:37.123296Z",
      "apogee_km": 475.9399942945565,
      "perigee_km": 474.3801838770796,
      "latitude_deg": 2.825592424524428e-05,
      "longitude_deg": -108.38843796013305,
      "height_km": 476.1769747790708,
      "semi_major_axis_km": 6853.297089085818,
      "eccentricity": 0.0001138,
      "inclination_deg": 53.1601,
      "raan_deg": 42.1944,
      "arg_perigee_deg": 98.747,
      "mean_anomaly_deg": 261.366,
      "mean_motion_rev_day": 15.30218414
    },
    {
      "epoch": "2026-04-06T06:29:56.205024Z",
      "apogee_km": 475.9487895160173,
      "perigee_km": 474.4039156200806,
      "latitude_deg": -5.272207127332749e-05,
      "longitude_deg": 108.32503165350461,
      "height_km": 476.0301265990624,
      "semi_major_axis_km": 6853.313352568049,
      "eccentricity": 0.00011271,
      "inclination_deg": 53.1599,
      "raan_deg": 40.3737,
      "arg_perigee_deg": 86.6973,
      "mean_anomaly_deg": 273.4156,
      "mean_motion_rev_day": 15.30212967
    },
    {
      "epoch": "2026-04-07T02:52:37.498080Z",
      "apogee_km": 475.80498128247746,
      "perigee_km": 474.56836755866516,
      "latitude_deg": -1.4101311979956469e-05,
      "longitude_deg": 157.87040351972553,
      "height_km": 475.84870592673394,
      "semi_major_axis_km": 6853.3236744205715,
      "eccentricity": 9.022e-05,
      "inclination_deg": 53.1597,
      "raan_deg": 36.428,
      "arg_perigee_deg": 67.5009,
      "mean_anomaly_deg": 292.6087,
      "mean_motion_rev_day": 15.3020951
    },
    {
      "epoch": "2026-04-07T20:07:12.772128Z",
      "apogee_km": 475.97405384190824,
      "perigee_km": 474.42519976424956,
      "latitude_deg": 5.871292997324187e-05,
      "longitude_deg": -104.82256979139059,
      "height_km": 475.81639334151373,
      "semi_major_axis_km": 6853.336626803079,
      "eccentricity": 0.000113,
      "inclination_deg": 53.1595,
      "raan_deg": 33.0901,
      "arg_perigee_deg": 68.6812,
      "mean_anomaly_deg": 291.431,
      "mean_motion_rev_day": 15.30205172
    },
    {
      "epoch": "2026-04-08T05:31:31.676736Z",
      "apogee_km": 475.9904701338901,
      "perigee_km": 474.3544480998089,
      "latitude_deg": 4.3034886304340475e-05,
      "longitude_deg": 111.89518819669085,
      "height_km": 476.0514778840912,
      "semi_major_axis_km": 6853.309459116849,
      "eccentricity": 0.00011936,
      "inclination_deg": 53.1604,
      "raan_deg": 31.2729,
      "arg_perigee_deg": 88.6548,
      "mean_anomaly_deg": 271.459,
      "mean_motion_rev_day": 15.30214271
    },
    {
      "epoch": "2026-04-09T05:02:19.011264Z",
      "apogee_km": 476.00474409955586,
      "perigee_km": 474.32746669754124,
      "latitude_deg": -3.417854277405129e-05,
      "longitude_deg": 113.68154978742609,
      "height_km": 475.9924953098419,
      "semi_major_axis_km": 6853.303105398549,
      "eccentricity": 0.00012237,
      "inclination_deg": 53.1604,
      "raan_deg": 26.7222,
      "arg_perigee_deg": 85.0879,
      "mean_anomaly_deg": 275.0261,
      "mean_motion_rev_day": 15.30216399
    },
    {
      "epoch": "2026-04-10T04:33:07.842240Z",
      "apogee_km": 476.139980819381,
      "perigee_km": 474.30191021839346,
      "latitude_deg": 4.459013321059024e-05,
      "longitude_deg": 115.46227555473403,
      "height_km": 476.393816344813,
      "semi_major_axis_km": 6853.357945518887,
      "eccentricity": 0.0001341,
      "inclination_deg": 53.161,
      "raan_deg": 22.172,
      "arg_perigee_deg": 107.3925,
      "mean_anomaly_deg": 252.7223,
      "mean_motion_rev_day": 15.30198032
    }
  ]
}